{
    "links": {
        "self": "http://www.neowsapp.com/rest/v1/neo/3991596?api_key=iIulBulltgU6a56xZRHN4H3l9WmuAYTsLGpBGhQ2"
    },
    "id": "3991596",
    "neo_reference_id": "3991596",
    "name": "(2020 CV2)",
    "designation": "2020 CV2",
    "nasa_jpl_url": "http://ssd.jpl.nasa.gov/sbdb.cgi?sstr=3991596",
    "absolute_magnitude_h": 25.774,
    "estimated_diameter": {
        "kilometers": {
            "estimated_diameter_min": 0.0186103687,
            "estimated_diameter_max": 0.0416140494
        },
        "meters": {
            "estimated_diameter_min": 18.6103686721,
            "estimated_diameter_max": 41.6140494372
        },
        "miles": {
            "estimated_diameter_min": 0.0115639434,
            "estimated_diameter_max": 0.0258577635
        },
        "feet": {
            "estimated_diameter_min": 61.0576419543,
            "estimated_diameter_max": 136.5290379556
        }
    },
    "is_potentially_hazardous_asteroid": false,
    "close_approach_data": [
        {
            "close_approach_date": "1973-09-12",
            "close_approach_date_full": "1973-Sep-12 09:57",
            "epoch_date_close_approach": 116675820000,
            "relative_velocity": {
                "kilometers_per_second": "8.3877026915",
                "kilometers_per_hour": "30195.7296895315",
                "miles_per_hour": "18762.4521506981"
            },
            "miss_distance": {
                "astronomical": "1.9966232587",
                "lunar": "776.6864476343",
                "kilometers": "298690586.693978969",
                "miles": "185597724.2908050122"
            },
            "orbiting_body": "Juptr"
        },
        {
            "close_approach_date": "1975-12-18",
            "close_approach_date_full": "1975-Dec-18 22:59",
            "epoch_date_close_approach": 188175540000,
            "relative_velocity": {
                "kilometers_per_second": "10.7976279663",
                "kilometers_per_hour": "38871.4606786652",
                "miles_per_hour": "24153.2139978073"
            },
            "miss_distance": {
                "astronomical": "0.0591048255",
                "lunar": "22.9917771195",
                "kilometers": "8841956.001521685",
                "miles": "5494136.692841853"
            },
            "orbiting_body": "Earth"
        },
        {
            "close_approach_date": "2020-02-09",
            "close_approach_date_full": "2020-Feb-09 14:27",
            "epoch_date_close_approach": 1581258420000,
            "relative_velocity": {
                "kilometers_per_second": "8.9685549431",
                "kilometers_per_hour": "32286.7977952487",
                "miles_per_hour": "20061.7605522755"
            },
            "miss_distance": {
                "astronomical": "0.023736954",
                "lunar": "9.233675106",
                "kilometers": "3550997.75868798",
                "miles": "2206487.691054924"
            },
            "orbiting_body": "Earth"
        }
    ],
    "orbital_data": {
        "orbit_id": "6",
        "orbit_determination_date": "2020-09-11 07:47:10",
        "first_observation_date": "2020-02-15",
        "last_observation_date": "2020-02-29",
        "data_arc_in_days": 14,
        "observations_used": 57,
        "orbit_uncertainty": "8",
        "minimum_orbit_intersection": ".0160034",
        "jupiter_tisserand_invariant": "3.154",
        "epoch_osculation": "2458897.5",
        "eccentricity": ".612411403596689",
        "semi_major_axis": "2.534305255055722",
        "inclination": "3.600038447185442",
        "ascending_node_longitude": "146.0429595771299",
        "orbital_period": "1473.624431133162",
        "perihelion_distance": ".9822678166645825",
        "perihelion_argument": "333.0666425083623",
        "aphelion_distance": "4.086342693446862",
        "perihelion_time": "2458873.119119350971",
        "mean_anomaly": "5.956142452728725",
        "mean_motion": ".2442956240371053",
        "equinox": "J2000",
        "orbit_class": {
            "orbit_class_type": "APO",
            "orbit_class_description": "Near-Earth asteroid orbits which cross the Earth’s orbit similar to that of 1862 Apollo",
            "orbit_class_range": "a (semi-major axis) > 1.0 AU; q (perihelion) < 1.017 AU"
        }
    },
    "is_sentry_object": false
}